FLOCK 4H-10             
1 66713U 25276AZ  26068.76176108  .00008509  00000+0  41463-3 0  9995
2 66713  97.4259 143.9692 0004304   8.4136 351.7170 15.18574346 15327
2026-027F               
1 67751U 26027F   26068.82581808  .00004513  00000+0  22391-3 0  9997
2 67751  97.4922 197.8630 0009672 203.5802 156.4990 15.18180546  3881
